0 TITAN 3C TRANSTAGE DEB
1 27879U 65108BQ  13285.36549613  .00000470  00000-0  16929-1 0  9235
2 27879 026.8160 272.7380 6780089 000.3629 359.9179 02.60319840102307
0 TITAN 3C TRANSTAGE DEB
1 27879U 65108BQ  13294.19974035  .00000397  00000-0  16929-1 0  9245
2 27879 026.8071 269.4119 6783330 005.9529 359.0821 02.60330599102537
